STARLINK-30329          
1 57635U 23122D   26068.42338009  .00001376  00000+0  60951-4 0  9998
2 57635  43.0009  94.2279 0001445 260.6424  99.4264 15.26746530142162
TRANSPORTER-14 OBJECT AC
1 64554U 25135AC  26068.82113864  .00024574  00000+0  93234-3 0  9990
2 64554  97.4518 185.7428 0001008 268.0523  92.0600 15.26845403 39827
